STARLINK-36479          
1 67352U 26003U   26019.91668981 -.01606841  00000+0 -71123-2 0  9993
2 67352  42.9987 148.9798 0001477 275.5497 342.0794 15.86251590  2832
STARLINK-36474          
1 67353U 26003V   26019.91668981 -.01611453  00000+0 -71358-2 0  9999
2 67353  42.9984 148.9741 0001400 270.9566 349.0769 15.86252008  2834
STARLINK-36448          
1 67354U 26003W   26019.91668981 -.01633638  00000+0 -72417-2 0  9996
2 67354  42.9987 148.9566 0001621 271.9485 354.8422 15.86268397  2837
STARLINK-36477          
1 67355U 26003X   26019.91668981 -.01621128  00000+0 -71878-2 0  9998
2 67355  42.9986 148.9675 0001620 276.1045 346.5273 15.86241295  2825
STARLINK-36429          
1 67356U 26003Y   26019.91668981 -.01628379  00000+0 -72212-2 0  9997
2 67356  42.9988 148.9620 0001585 278.2768 346.4769 15.86251575  2824
STARLINK-36456          
1 67357U 26003Z   26019.91668981 -.01648406  00000+0 -73156-2 0  9999
2 67357  42.9987 148.9505 0001612 277.8653 351.3183 15.86272422  2835
STARLINK-36466          
1 67358U 26003AA  26019.91668981 -.01652756  00000+0 -73429-2 0  9996
2 67358  42.9987 148.9438 0001561 275.6298 356.1384 15.86259068  2832
STARLINK-36499          
1 67359U 26003AB  26019.91668981 -.01659891  00000+0 -73744-2 0  9994
2 67359  42.9987 148.9383 0001656 276.4382 357.4646 15.86271610  2832
STARLINK-36469          
1 67360U 26003AC  26019.91668981 -.01668068  00000+0 -74195-2 0  9993
2 67360  42.9987 148.9319 0001655 275.9813   0.4647 15.86262968  2837
STARLINK-35306          
1 67361U 26003AD  26019.91668981 -.01680512  00000+0 -74764-2 0  9994
2 67361  42.9984 148.9264 0001608 274.2994   4.2166 15.86282485  2771
STARLINK-36428          
1 67362U 26003AE  26019.91668981 -.01678231  00000+0 -74678-2 0  9994
2 67362  42.9985 148.9199 0001685 275.0636   5.8927 15.86272851  2832
SHIJIAN-29B (SJ-29B)    
1 67403U 25315C   26019.95205715 -.00000054  00000+0  00000+0 0  9996
2 67403   3.0214  99.0327 0000914 320.9098 115.2282  1.00271589   203
