CCSDS_OMM_VERS = 2.0
CREATION_DATE  = 
ORIGINATOR     = 

OBJECT_NAME    = STARLINK-36479
OBJECT_ID      = 2026-003U
CENTER_NAME    = EARTH
REF_FRAME      = TEME
TIME_SYSTEM    = UTC
MEAN_ELEMENT_THEORY = SGP/SGP4

EPOCH          = 2026-01-19T22:00:01.999584
MEAN_MOTION    = 15.86251590
ECCENTRICITY   = .0001477
INCLINATION    = 42.9987
RA_OF_ASC_NODE = 148.9798
ARG_OF_PERICENTER = 275.5497
MEAN_ANOMALY   = 342.0794

EPHEMERIS_TYPE = 0
CLASSIFICATION_TYPE = U
NORAD_CAT_ID   = 67352
ELEMENT_SET_NO = 999
REV_AT_EPOCH   = 283
BSTAR          = -.71122594E-2
MEAN_MOTION_DOT = -.1606841E-1
MEAN_MOTION_DDOT = 0

CCSDS_OMM_VERS = 2.0
CREATION_DATE  = 
ORIGINATOR     = 

OBJECT_NAME    = STARLINK-36474
OBJECT_ID      = 2026-003V
CENTER_NAME    = EARTH
REF_FRAME      = TEME
TIME_SYSTEM    = UTC
MEAN_ELEMENT_THEORY = SGP/SGP4

EPOCH          = 2026-01-19T22:00:01.999584
MEAN_MOTION    = 15.86252008
ECCENTRICITY   = .00014009
INCLINATION    = 42.9984
RA_OF_ASC_NODE = 148.9741
ARG_OF_PERICENTER = 270.9566
MEAN_ANOMALY   = 349.0769

EPHEMERIS_TYPE = 0
CLASSIFICATION_TYPE = U
NORAD_CAT_ID   = 67353
ELEMENT_SET_NO = 999
REV_AT_EPOCH   = 283
BSTAR          = -.71358279E-2
MEAN_MOTION_DOT = -.1611453E-1
MEAN_MOTION_DDOT = 0

CCSDS_OMM_VERS = 2.0
CREATION_DATE  = 
ORIGINATOR     = 

OBJECT_NAME    = STARLINK-36448
OBJECT_ID      = 2026-003W
CENTER_NAME    = EARTH
REF_FRAME      = TEME
TIME_SYSTEM    = UTC
MEAN_ELEMENT_THEORY = SGP/SGP4

EPOCH          = 2026-01-19T22:00:01.999584
MEAN_MOTION    = 15.86268397
ECCENTRICITY   = .00016215
INCLINATION    = 42.9987
RA_OF_ASC_NODE = 148.9566
ARG_OF_PERICENTER = 271.9485
MEAN_ANOMALY   = 354.8422

EPHEMERIS_TYPE = 0
CLASSIFICATION_TYPE = U
NORAD_CAT_ID   = 67354
ELEMENT_SET_NO = 999
REV_AT_EPOCH   = 283
BSTAR          = -.72417289E-2
MEAN_MOTION_DOT = -.1633638E-1
MEAN_MOTION_DDOT = 0

CCSDS_OMM_VERS = 2.0
CREATION_DATE  = 
ORIGINATOR     = 

OBJECT_NAME    = STARLINK-36477
OBJECT_ID      = 2026-003X
CENTER_NAME    = EARTH
REF_FRAME      = TEME
TIME_SYSTEM    = UTC
MEAN_ELEMENT_THEORY = SGP/SGP4

EPOCH          = 2026-01-19T22:00:01.999584
MEAN_MOTION    = 15.86241295
ECCENTRICITY   = .00016205
INCLINATION    = 42.9986
RA_OF_ASC_NODE = 148.9675
ARG_OF_PERICENTER = 276.1045
MEAN_ANOMALY   = 346.5273

EPHEMERIS_TYPE = 0
CLASSIFICATION_TYPE = U
NORAD_CAT_ID   = 67355
ELEMENT_SET_NO = 999
REV_AT_EPOCH   = 282
BSTAR          = -.71877808E-2
MEAN_MOTION_DOT = -.1621128E-1
MEAN_MOTION_DDOT = 0

CCSDS_OMM_VERS = 2.0
CREATION_DATE  = 
ORIGINATOR     = 

OBJECT_NAME    = STARLINK-36429
OBJECT_ID      = 2026-003Y
CENTER_NAME    = EARTH
REF_FRAME      = TEME
TIME_SYSTEM    = UTC
MEAN_ELEMENT_THEORY = SGP/SGP4

EPOCH          = 2026-01-19T22:00:01.999584
MEAN_MOTION    = 15.86251575
ECCENTRICITY   = .00015852
INCLINATION    = 42.9988
RA_OF_ASC_NODE = 148.9620
ARG_OF_PERICENTER = 278.2768
MEAN_ANOMALY   = 346.4769

EPHEMERIS_TYPE = 0
CLASSIFICATION_TYPE = U
NORAD_CAT_ID   = 67356
ELEMENT_SET_NO = 999
REV_AT_EPOCH   = 282
BSTAR          = -.72211588E-2
MEAN_MOTION_DOT = -.1628379E-1
MEAN_MOTION_DDOT = 0

CCSDS_OMM_VERS = 2.0
CREATION_DATE  = 
ORIGINATOR     = 

OBJECT_NAME    = STARLINK-36456
OBJECT_ID      = 2026-003Z
CENTER_NAME    = EARTH
REF_FRAME      = TEME
TIME_SYSTEM    = UTC
MEAN_ELEMENT_THEORY = SGP/SGP4

EPOCH          = 2026-01-19T22:00:01.999584
MEAN_MOTION    = 15.86272422
ECCENTRICITY   = .00016123
INCLINATION    = 42.9987
RA_OF_ASC_NODE = 148.9505
ARG_OF_PERICENTER = 277.8653
MEAN_ANOMALY   = 351.3183

EPHEMERIS_TYPE = 0
CLASSIFICATION_TYPE = U
NORAD_CAT_ID   = 67357
ELEMENT_SET_NO = 999
REV_AT_EPOCH   = 283
BSTAR          = -.73156087E-2
MEAN_MOTION_DOT = -.1648406E-1
MEAN_MOTION_DDOT = 0

CCSDS_OMM_VERS = 2.0
CREATION_DATE  = 
ORIGINATOR     = 

OBJECT_NAME    = STARLINK-36466
OBJECT_ID      = 2026-003AA
CENTER_NAME    = EARTH
REF_FRAME      = TEME
TIME_SYSTEM    = UTC
MEAN_ELEMENT_THEORY = SGP/SGP4

EPOCH          = 2026-01-19T22:00:01.999584
MEAN_MOTION    = 15.86259068
ECCENTRICITY   = .00015611
INCLINATION    = 42.9987
RA_OF_ASC_NODE = 148.9438
ARG_OF_PERICENTER = 275.6298
MEAN_ANOMALY   = 356.1384

EPHEMERIS_TYPE = 0
CLASSIFICATION_TYPE = U
NORAD_CAT_ID   = 67358
ELEMENT_SET_NO = 999
REV_AT_EPOCH   = 283
BSTAR          = -.73429291E-2
MEAN_MOTION_DOT = -.1652756E-1
MEAN_MOTION_DDOT = 0

CCSDS_OMM_VERS = 2.0
CREATION_DATE  = 
ORIGINATOR     = 

OBJECT_NAME    = STARLINK-36499
OBJECT_ID      = 2026-003AB
CENTER_NAME    = EARTH
REF_FRAME      = TEME
TIME_SYSTEM    = UTC
MEAN_ELEMENT_THEORY = SGP/SGP4

EPOCH          = 2026-01-19T22:00:01.999584
MEAN_MOTION    = 15.86271610
ECCENTRICITY   = .00016569
INCLINATION    = 42.9987
RA_OF_ASC_NODE = 148.9383
ARG_OF_PERICENTER = 276.4382
MEAN_ANOMALY   = 357.4646

EPHEMERIS_TYPE = 0
CLASSIFICATION_TYPE = U
NORAD_CAT_ID   = 67359
ELEMENT_SET_NO = 999
REV_AT_EPOCH   = 283
BSTAR          = -.73743906E-2
MEAN_MOTION_DOT = -.1659891E-1
MEAN_MOTION_DDOT = 0

CCSDS_OMM_VERS = 2.0
CREATION_DATE  = 
ORIGINATOR     = 

OBJECT_NAME    = STARLINK-36469
OBJECT_ID      = 2026-003AC
CENTER_NAME    = EARTH
REF_FRAME      = TEME
TIME_SYSTEM    = UTC
MEAN_ELEMENT_THEORY = SGP/SGP4

EPOCH          = 2026-01-19T22:00:01.999584
MEAN_MOTION    = 15.86262968
ECCENTRICITY   = .00016558
INCLINATION    = 42.9987
RA_OF_ASC_NODE = 148.9319
ARG_OF_PERICENTER = 275.9813
MEAN_ANOMALY   = 0.4647

EPHEMERIS_TYPE = 0
CLASSIFICATION_TYPE = U
NORAD_CAT_ID   = 67360
ELEMENT_SET_NO = 999
REV_AT_EPOCH   = 283
BSTAR          = -.74194587E-2
MEAN_MOTION_DOT = -.1668068E-1
MEAN_MOTION_DDOT = 0

CCSDS_OMM_VERS = 2.0
CREATION_DATE  = 
ORIGINATOR     = 

OBJECT_NAME    = STARLINK-35306
OBJECT_ID      = 2026-003AD
CENTER_NAME    = EARTH
REF_FRAME      = TEME
TIME_SYSTEM    = UTC
MEAN_ELEMENT_THEORY = SGP/SGP4

EPOCH          = 2026-01-19T22:00:01.999584
MEAN_MOTION    = 15.86282485
ECCENTRICITY   = .00016083
INCLINATION    = 42.9984
RA_OF_ASC_NODE = 148.9264
ARG_OF_PERICENTER = 274.2994
MEAN_ANOMALY   = 4.2166

EPHEMERIS_TYPE = 0
CLASSIFICATION_TYPE = U
NORAD_CAT_ID   = 67361
ELEMENT_SET_NO = 999
REV_AT_EPOCH   = 277
BSTAR          = -.74763572E-2
MEAN_MOTION_DOT = -.1680512E-1
MEAN_MOTION_DDOT = 0

CCSDS_OMM_VERS = 2.0
CREATION_DATE  = 
ORIGINATOR     = 

OBJECT_NAME    = STARLINK-36428
OBJECT_ID      = 2026-003AE
CENTER_NAME    = EARTH
REF_FRAME      = TEME
TIME_SYSTEM    = UTC
MEAN_ELEMENT_THEORY = SGP/SGP4

EPOCH          = 2026-01-19T22:00:01.999584
MEAN_MOTION    = 15.86272851
ECCENTRICITY   = .00016851
INCLINATION    = 42.9985
RA_OF_ASC_NODE = 148.9199
ARG_OF_PERICENTER = 275.0636
MEAN_ANOMALY   = 5.8927

EPHEMERIS_TYPE = 0
CLASSIFICATION_TYPE = U
NORAD_CAT_ID   = 67362
ELEMENT_SET_NO = 999
REV_AT_EPOCH   = 283
BSTAR          = -.74678241E-2
MEAN_MOTION_DOT = -.1678231E-1
MEAN_MOTION_DDOT = 0

CCSDS_OMM_VERS = 2.0
CREATION_DATE  = 
ORIGINATOR     = 

OBJECT_NAME    = SHIJIAN-29B (SJ-29B)
OBJECT_ID      = 2025-315C
CENTER_NAME    = EARTH
REF_FRAME      = TEME
TIME_SYSTEM    = UTC
MEAN_ELEMENT_THEORY = SGP/SGP4

EPOCH          = 2026-01-19T22:50:57.737760
MEAN_MOTION    = 1.00271589
ECCENTRICITY   = .00009141
INCLINATION    = 3.0214
RA_OF_ASC_NODE = 99.0327
ARG_OF_PERICENTER = 320.9098
MEAN_ANOMALY   = 115.2282

EPHEMERIS_TYPE = 0
CLASSIFICATION_TYPE = U
NORAD_CAT_ID   = 67403
ELEMENT_SET_NO = 999
REV_AT_EPOCH   = 20
BSTAR          = 0
MEAN_MOTION_DOT = -.54E-6
MEAN_MOTION_DDOT = 0

